SENTINEL-2B             
1 42063U 17013A   20171.60614147 -.00000014  00000-0  11229-4 0  9992
2 42063  98.5699 245.8078 0001093 100.4606 259.6708 14.30817386171688
